NORAD_CAT_ID,OBJECT_NAME,OBJECT_TYPE,EPOCH,MEAN_MOTION,ECCENTRICITY,INCLINATION,RA_OF_ASC_NODE,ARG_OF_PERICENTER,MEAN_ANOMALY,BSTAR,MEAN_MOTION_DOT,MEAN_MOTION_DDOT,TLE_LINE0,TLE_LINE1,TLE_LINE2,SEMIMAJOR_AXIS,PERIOD,APOGEE,PERIGEE,DECAYED
52535.0,STARLINK-3958,PAYLOAD,2023-07-30 01:14:33,15.08852875,0.0001038,53.2158,90.1672,108.3511,251.7594,0.0004275,6.525e-05,0.0,0 STARLINK-3958,1 52535U 22051C   23211.05177293  .00006525  00000-0  42750-3 0  9992,2 52535  53.2158  90.1672 0001038 108.3511 251.7594 15.08852875 67546,6917.841,95.437,540.424,538.988,0.0
52535.0,STARLINK-3958,PAYLOAD,2023-07-30 15:33:01,15.08843951,0.0001149,53.2157,87.4913,104.06,256.052,0.00017872,2.558e-05,0.0,0 STARLINK-3958,1 52535U 22051C   23211.64793572  .00002558  00000-0  17872-3 0  9990,2 52535  53.2157  87.4913 0001149 104.0600 256.0520 15.08843951 67639,6917.868,95.437,540.528,538.938,0.0
52535.0,STARLINK-3958,PAYLOAD,2023-07-31 09:02:16,15.0884118,0.0001186,53.2169,84.2188,98.6358,261.4768,0.00015998,2.259e-05,0.0,0 STARLINK-3958,1 52535U 22051C   23212.37657885  .00002259  00000-0  15998-3 0  9992,2 52535  53.2169  84.2188 0001186  98.6358 261.4768 15.08841180 67748,6917.877,95.437,540.562,538.921,0.0
52535.0,STARLINK-3958,PAYLOAD,2023-08-01 18:25:22,15.08839471,0.0001038,53.2158,77.9744,96.9273,263.1837,0.00010614,1.402e-05,0.0,0 STARLINK-3958,1 52535U 22051C   23213.76762068  .00001402  00000-0  10614-3 0  9995,2 52535  53.2158  77.9744 0001038  96.9273 263.1837 15.08839471 67955,6917.882,95.438,540.465,539.029,0.0
52535.0,STARLINK-3958,PAYLOAD,2023-08-03 00:37:42,15.08827445,0.0001322,53.2162,72.3232,114.0619,246.0511,0.00089974,0.00014055,0.0,0 STARLINK-3958,1 52535U 22051C   23215.02618823  .00014055  00000-0  89974-3 0  9998,2 52535  53.2162  72.3232 0001322 114.0619 246.0511 15.08827445 68142,6917.919,95.438,540.698,538.869,0.0
52535.0,STARLINK-3958,PAYLOAD,2023-08-03 19:42:19,15.08837666,0.0001343,53.2165,68.7529,113.6786,246.4347,2.4128e-05,9.6e-07,0.0,0 STARLINK-3958,1 52535U 22051C   23215.82106173  .00000096  00000-0  24128-4 0  9997,2 52535  53.2165  68.7529 0001343 113.6786 246.4347 15.08837666 68266,6917.888,95.438,540.682,538.823,0.0
52535.0,STARLINK-3958,PAYLOAD,2023-08-05 08:16:13,15.08817647,0.0001279,53.2164,61.9172,110.6888,249.4241,0.00095113,0.00014872,0.0,0 STARLINK-3958,1 52535U 22051C   23217.34459941  .00014872  00000-0  95113-3 0  9998,2 52535  53.2164  61.9172 0001279 110.6888 249.4241 15.08817647 68490,6917.949,95.439,540.699,538.929,0.0
52535.0,STARLINK-3958,PAYLOAD,2023-08-05 17:48:30,15.08838722,0.0001049,53.2165,60.1332,89.5605,270.5507,7.183e-05,8.56e-06,0.0,0 STARLINK-3958,1 52535U 22051C   23217.74202463  .00000856  00000-0  71830-4 0  9995,2 52535  53.2165  60.1332 0001049  89.5605 270.5507 15.08838722 68550,6917.884,95.438,540.475,539.024,0.0
52535.0,STARLINK-3958,PAYLOAD,2023-08-06 00:10:02,15.08848671,0.0001104,53.2162,58.943,99.5197,260.592,0.00020385,2.959e-05,0.0,0 STARLINK-3958,1 52535U 22051C   23218.00697911  .00002959  00000-0  20385-3 0  9995,2 52535  53.2162  58.9430 0001104  99.5197 260.5920 15.08848671 68596,6917.854,95.437,540.483,538.955,0.0
52535.0,STARLINK-3958,PAYLOAD,2023-08-06 08:06:59,15.08827296,0.0001093,53.2162,57.4568,91.9062,268.2056,-0.00013974,-2.51e-05,0.0,0 STARLINK-3958,1 52535U 22051C   23218.33819117 -.00002510  00000-0 -13974-3 0  9996,2 52535  53.2162  57.4568 0001093  91.9062 268.2056 15.08827296 68647,6917.919,95.438,540.54,539.028,0.0
52535.0,STARLINK-3958,PAYLOAD,2023-08-07 07:57:47,15.08836097,0.0001014,53.2168,52.9964,89.0934,271.0175,0.00014782,2.065e-05,0.0,0 STARLINK-3958,1 52535U 22051C   23219.33179411  .00002065  00000-0  14782-3 0  9994,2 52535  53.2168  52.9964 0001014  89.0934 271.0175 15.08836097 68791,6917.892,95.438,540.459,539.056,0.0
52535.0,STARLINK-3958,PAYLOAD,2023-08-07 19:05:28,15.08853267,0.0001004,53.2162,50.9152,87.4063,272.7044,0.00088566,0.00013841,0.0,0 STARLINK-3958,1 52535U 22051C   23219.79547314  .00013841  00000-0  88566-3 0  9990,2 52535  53.2162  50.9152 0001004  87.4063 272.7044 15.08853267 68865,6917.84,95.437,540.399,539.01,0.0
52535.0,STARLINK-3958,PAYLOAD,2023-08-08 07:48:33,15.08855192,9.43e-05,53.2164,48.5359,86.4653,273.6447,0.00063593,9.852e-05,0.0,0 STARLINK-3958,1 52535U 22051C   23220.32539127  .00009852  00000-0  63593-3 0  9994,2 52535  53.2164  48.5359 0000943  86.4653 273.6447 15.08855192 68949,6917.834,95.437,540.351,539.047,0.0
52535.0,STARLINK-3958,PAYLOAD,2023-08-08 18:56:15,15.08851562,9.54e-05,53.2166,46.4543,84.3385,275.7715,0.00034558,5.218e-05,0.0,0 STARLINK-3958,1 52535U 22051C   23220.78907003  .00005218  00000-0  34558-3 0  9997,2 52535  53.2166  46.4543 0000954  84.3385 275.7715 15.08851562 69011,6917.845,95.437,540.37,539.05,0.0
52535.0,STARLINK-3958,PAYLOAD,2023-08-09 09:14:43,15.0884292,0.0001182,53.216,43.7775,80.833,279.2796,1.182e-05,-1e-06,0.0,0 STARLINK-3958,1 52535U 22051C   23221.38523006 -.00000100  00000-0  11820-4 0  9995,2 52535  53.2160  43.7775 0001182  80.8330 279.2796 15.08842920 69103,6917.871,95.437,540.554,538.919,0.0
52535.0,STARLINK-3958,PAYLOAD,2023-08-10 18:37:49,15.08842391,9.43e-05,53.2173,37.5335,81.3899,278.72,8.4893e-05,1.064e-05,0.0,0 STARLINK-3958,1 52535U 22051C   23222.77626886  .00001064  00000-0  84893-4 0  9998,2 52535  53.2173  37.5335 0000943  81.3899 278.7200 15.08842391 69319,6917.873,95.437,540.39,539.086,0.0
52535.0,STARLINK-3958,PAYLOAD,2023-08-12 10:22:28,15.0883658,9.62e-05,53.2168,30.1004,89.6427,270.4675,8.0043e-06,-1.6e-06,0.0,0 STARLINK-3958,1 52535U 22051C   23224.43227135 -.00000160  00000-0  80043-5 0  9998,2 52535  53.2168  30.1004 0000962  89.6427 270.4675 15.08836580 69569,6917.891,95.438,540.421,539.09,0.0
52535.0,STARLINK-3958,PAYLOAD,2023-08-12 21:30:09,15.08845209,9.7e-05,53.2177,28.0184,88.9369,271.1735,0.00011072,1.475e-05,0.0,0 STARLINK-3958,1 52535U 22051C   23224.89594758  .00001475  00000-0  11072-3 0  9999,2 52535  53.2177  28.0184 0000970  88.9369 271.1735 15.08845209 69631,6917.864,95.437,540.401,539.058,0.0
52535.0,STARLINK-3958,PAYLOAD,2023-08-13 03:51:43,15.08837114,8.77e-05,53.2182,26.8274,87.5674,272.5419,3.1533e-05,2.14e-06,0.0,0 STARLINK-3958,1 52535U 22051C   23225.16091461  .00000214  00000-0  31533-4 0  9998,2 52535  53.2182  26.8274 0000877  87.5674 272.5419 15.08837114 69677,6917.889,95.438,540.361,539.148,0.0
52535.0,STARLINK-3958,PAYLOAD,2023-08-14 16:25:35,15.08842509,9.46e-05,53.2186,19.9888,86.2804,273.8296,5.8673e-05,6.46e-06,0.0,0 STARLINK-3958,1 52535U 22051C   23226.68443355  .00000646  00000-0  58673-4 0  9992,2 52535  53.2186  19.9888 0000946  86.2804 273.8296 15.08842509 69900,6917.873,95.437,540.392,539.083,0.0
52535.0,STARLINK-3958,PAYLOAD,2023-08-16 03:24:03,15.08845881,9.33e-05,53.2178,13.4483,77.9114,282.1983,6.4089e-05,7.33e-06,0.0,0 STARLINK-3958,1 52535U 22051C   23228.14171017  .00000733  00000-0  64089-4 0  9993,2 52535  53.2178  13.4483 0000933  77.9114 282.1983 15.08845881 70126,6917.862,95.437,540.373,539.082,0.0
52535.0,STARLINK-3958,PAYLOAD,2023-08-16 16:07:09,15.08835433,9.33e-05,53.2188,11.0683,86.5568,273.5531,2.3872e-05,9.2e-07,0.0,0 STARLINK-3958,1 52535U 22051C   23228.67163809  .00000092  00000-0  23872-4 0  9994,2 52535  53.2188  11.0683 0000933  86.5568 273.5531 15.08835433 70206,6917.894,95.438,540.405,539.114,0.0
52535.0,STARLINK-3958,PAYLOAD,2023-08-17 15:57:56,15.08836165,8.68e-05,53.2189,6.608,91.8299,268.2792,0.0002012,2.915e-05,0.0,0 STARLINK-3958,1 52535U 22051C   23229.66523304  .00002915  00000-0  20120-3 0  9992,2 52535  53.2189   6.6080 0000868  91.8299 268.2792 15.08836165 70354,6917.892,95.438,540.358,539.157,0.0
52535.0,STARLINK-3958,PAYLOAD,2023-08-18 09:27:11,15.08830599,8.19e-05,53.219,3.338,83.4312,276.6773,2.8182e-05,1.61e-06,0.0,0 STARLINK-3958,1 52535U 22051C   23230.39388023  .00000161  00000-0  28182-4 0  9999,2 52535  53.2190   3.3380 0000819  83.4312 276.6773 15.08830599 70461,6917.909,95.438,540.341,539.208,0.0
52535.0,STARLINK-3958,PAYLOAD,2023-08-18 15:48:43,15.08838201,9.18e-05,53.2187,2.149,90.4304,269.6793,9.2008e-05,1.177e-05,0.0,0 STARLINK-3958,1 52535U 22051C   23230.65883492  .00001177  00000-0  92008-4 0  9994,2 52535  53.2187   2.1490 0000918  90.4304 269.6793 15.08838201 70502,6917.886,95.438,540.386,539.116,0.0
52535.0,STARLINK-3958,PAYLOAD,2023-08-19 12:28:44,15.08837227,0.0001004,53.2182,358.2835,95.0784,265.0323,-1.4314e-05,-5.16e-06,0.0,0 STARLINK-3958,1 52535U 22051C   23231.51996021 -.00000516  00000-0 -14314-4 0  9995,2 52535  53.2182 358.2835 0001004  95.0784 265.0323 15.08837227 70635,6917.889,95.438,540.448,539.059,0.0
52535.0,STARLINK-3958,PAYLOAD,2023-08-20 17:05:40,15.08855807,0.0001412,53.2182,352.9303,108.3322,251.7824,-9.9637e-05,-1.874e-05,0.0,0 STARLINK-3958,1 52535U 22051C   23232.71227356 -.00001874  00000-0 -99637-4 0  9995,2 52535  53.2182 352.9303 0001412 108.3322 251.7824 15.08855807 70817,6917.832,95.437,540.674,538.72,0.0
52535.0,STARLINK-3958,PAYLOAD,2023-08-21 02:38:00,15.08834801,0.0001149,53.2183,351.1456,93.0707,267.0417,5.3423e-05,5.62e-06,0.0,0 STARLINK-3958,1 52535U 22051C   23233.10972362  .00000562  00000-0  53423-4 0  9997,2 52535  53.2183 351.1456 0001149  93.0707 267.0417 15.08834801 70877,6917.896,95.438,540.556,538.966,0.0
52535.0,STARLINK-3958,PAYLOAD,2023-08-21 15:21:04,15.08841925,0.000116,53.2186,348.768,85.8639,274.2486,9.622e-05,1.244e-05,0.0,0 STARLINK-3958,1 52535U 22051C   23233.63963895  .00001244  00000-0  96220-4 0  9996,2 52535  53.2186 348.7680 0001160  85.8639 274.2486 15.08841925 70957,6917.875,95.437,540.542,538.937,0.0
52535.0,STARLINK-3958,PAYLOAD,2023-08-22 12:01:06,15.08833853,0.0001364,53.2188,344.9037,74.8504,285.2639,5.2812e-05,5.53e-06,0.0,0 STARLINK-3958,1 52535U 22051C   23234.50076780  .00000553  00000-0  52812-4 0  9992,2 52535  53.2188 344.9037 0001364  74.8504 285.2639 15.08833853 71086,6917.899,95.438,540.708,538.821,0.0
